ONEWEB-0331             
1 49198U 21083N   24272.78793790 -.00000005  00000+0 -45930-4 0  9993
2 49198  87.9055 100.1351 0001597  76.3570 283.7740 13.18686220147457
ONEWEB-0333             
1 49199U 21083P   24272.88449033 -.00000121  00000+0 -36740-3 0  9990
2 49199  87.8858  84.8706 0001703  93.9276 266.2048 13.13468202148694
ONEWEB-0334             
1 49200U 21083Q   24272.90457338 -.00000033  00000+0 -11206-3 0  9995
2 49200  87.9256  39.0446 0002315 125.0975 235.0376 13.20770929154129
ONEWEB-0335             
1 49201U 21083R   24272.95591410  .00000025  00000+0  33205-4 0  9994
2 49201  87.8855  84.8450 0001754  85.3435 274.7894 13.13469482148716
ONEWEB-0336             
1 49202U 21083S   24272.92576629  .00000310  00000+0  81278-3 0  9996
2 49202  87.8859  84.8460 0001490  93.8020 266.3279 13.13471235148705
ONEWEB-0337             
1 49203U 21083T   24272.93514637  .00000408  00000+0  10810-2 0  9990
2 49203  87.8855  84.8428 0001679  85.2914 274.8407 13.13469302148701
ONEWEB-0338             
1 49204U 21083U   24272.91166732  .00000034  00000+0  51527-4 0  9995
2 49204  87.9260  39.0328 0002105 105.7330 254.4036 13.20773426154149
ONEWEB-0339             
1 49205U 21083V   24272.94638346  .00000170  00000+0  42922-3 0  9993
2 49205  87.8855  84.8341 0001778  88.1268 272.0064 13.13468299148681
